{"type": "FeatureCollection", "features": [ {"type": "Feature", "properties": {"norad_id": 30467, "name": "FENGYUN 1C DEB", "group": "fengyun-1c-debris", "lat": 69.05941450985542, "lon": -145.38457225504362, "alt_km": 786.0893341759447, "timestamp": "2025-12-09T11:33:55.076460+00:00", "meta": {"OBJECT_NAME": "FENGYUN 1C DEB", "OBJECT_ID": "1999-025AGE", "EPOCH": "2025-12-09T01:08:32.944128", "MEAN_MOTION": 14.17254613, "ECCENTRICITY": 0.0065322, "INCLINATION": 98.6791, "RA_OF_ASC_NODE": 10.6663, "ARG_OF_PERICENTER": 137.9522, "MEAN_ANOMALY": 276.9649, "EPHEMERIS_TYPE": 0, "CLASSIFICATION_TYPE": "U", "NORAD_CAT_ID": 30467, "ELEMENT_SET_NO": 999, "REV_AT_EPOCH": 97125, "BSTAR": 0.0010565, "MEAN_MOTION_DOT": 2.136e-05, "MEAN_MOTION_DDOT": 0}, "tle": {"line1": "1 30467U 99025AGE 25343.04760352  .00002136  00000+0  10565-2 0  9999", "line2": "2 30467  98.6791  10.6663 0065322 137.9522 276.9649 14.17254613971252"}}, "geometry": {"type": "Point", "coordinates": [-145.38457225504362, 69.05941450985542]}}, {"type": "Feature", "properties": {"norad_id": 30468, "name": "FENGYUN 1C DEB", "group": "fengyun-1c-debris", "lat": 18.377026418882167, "lon": 61.95606826050781, "alt_km": 778.5575601372939, "timestamp": "2025-12-09T11:33:55.076469+00:00", "meta": {"OBJECT_NAME": "FENGYUN 1C DEB", "OBJECT_ID": "1999-025AGF", "EPOCH": "2025-12-09T04:58:13.553184", "MEAN_MOTION": 14.20673368, "ECCENTRICITY": 0.0072157, "INCLINATION": 98.9219, "RA_OF_ASC_NODE": 64.6702, "ARG_OF_PERICENTER": 50.2632, "MEAN_ANOMALY": 4.2901, "EPHEMERIS_TYPE": 0, "CLASSIFICATION_TYPE": "U", "NORAD_CAT_ID": 30468, "ELEMENT_SET_NO": 999, "REV_AT_EPOCH": 96760, "BSTAR": 0.001652, "MEAN_MOTION_DOT": 3.61e-05, "MEAN_MOTION_DDOT": 0}, "tle": {"line1": "1 30468U 99025AGF 25343.20710131  .00003610  00000+0  16520-2 0  9993", "line2": "2 30468  98.9219  64.6702 0072157  50.2632   4.2901 14.20673368967600"}}, "geometry": {"type": "Point", "coordinates": [61.95606826050781, 18.377026418882167]}}, {"type": "Feature", "properties": {"norad_id": 30469, "name": "FENGYUN 1C DEB", "group": "fengyun-1c-debris", "lat": -66.35962348929793, "lon": -145.63769890130516, "alt_km": 957.3494024957627, "timestamp": "2025-12-09T11:33:55.076480+00:00", "meta": {"OBJECT_NAME": "FENGYUN 1C DEB", "OBJECT_ID": "1999-025AGG", "EPOCH": "2025-12-09T03:55:08.612832", "MEAN_MOTION": 13.96496637, "ECCENTRICITY": 0.0158609, "INCLINATION": 98.4781, "RA_OF_ASC_NODE": 194.1464, "ARG_OF_PERICENTER": 179.7647, "MEAN_ANOMALY": 309.9502, "EPHEMERIS_TYPE": 0, "CLASSIFICATION_TYPE": "U", "NORAD_CAT_ID": 30469, "ELEMENT_SET_NO": 999, "REV_AT_EPOCH": 95656, "BSTAR": 0.00098068, "MEAN_MOTION_DOT": 1.468e-05, "MEAN_MOTION_DDOT": 0}, "tle": {"line1": "1 30469U 99025AGG 25343.16329413  .00001468  00000+0  98068-3 0  9995", "line2": "2 30469  98.4781 194.1464 0158609 179.7647 309.9502 13.96496637956563"}}, "geometry": {"type": "Point", "coordinates": [-145.63769890130516, -66.35962348929793]}}, {"type": "Feature", "properties": {"norad_id": 30471, "name": "FENGYUN 1C DEB", "group": "fengyun-1c-debris", "lat": -2.5716543387418933, "lon": -109.36872881726985, "alt_km": 839.6675367334374, "timestamp": "2025-12-09T11:33:55.076490+00:00", "meta": {"OBJECT_NAME": "FENGYUN 1C DEB", "OBJECT_ID": "1999-025AGJ", "EPOCH": "2025-12-09T04:11:40.789824", "MEAN_MOTION": 14.13589142, "ECCENTRICITY": 0.0082161, "INCLINATION": 99.054, "RA_OF_ASC_NODE": 70.7308, "ARG_OF_PERICENTER": 263.4695, "MEAN_ANOMALY": 157.9509, "EPHEMERIS_TYPE": 0, "CLASSIFICATION_TYPE": "U", "NORAD_CAT_ID": 30471, "ELEMENT_SET_NO": 999, "REV_AT_EPOCH": 96392, "BSTAR": 0.0022784, "MEAN_MOTION_DOT": 4.392e-05, "MEAN_MOTION_DDOT": 0}, "tle": {"line1": "1 30471U 99025AGJ 25343.17477766  .00004392  00000+0  22784-2 0  9994", "line2": "2 30471  99.0540  70.7308 0082161 263.4695 157.9509 14.13589142963925"}}, "geometry": {"type": "Point", "coordinates": [-109.36872881726985, -2.5716543387418933]}}, {"type": "Feature", "properties": {"norad_id": 30472, "name": "FENGYUN 1C DEB", "group": "fengyun-1c-debris", "lat": -1.0068767770522713, "lon": -95.67040979795463, "alt_km": 717.2821234166468, "timestamp": "2025-12-09T11:33:55.076500+00:00", "meta": {"OBJECT_NAME": "FENGYUN 1C DEB", "OBJECT_ID": "1999-025AGK", "EPOCH": "2025-12-09T03:01:45.153984", "MEAN_MOTION": 14.53674291, "ECCENTRICITY": 0.0038501, "INCLINATION": 98.6515, "RA_OF_ASC_NODE": 84.1157, "ARG_OF_PERICENTER": 90.62, "MEAN_ANOMALY": 29.6119, "EPHEMERIS_TYPE": 0, "CLASSIFICATION_TYPE": "U", "NORAD_CAT_ID": 30472, "ELEMENT_SET_NO": 999, "REV_AT_EPOCH": 97988, "BSTAR": 0.0029424, "MEAN_MOTION_DOT": 0.00012409, "MEAN_MOTION_DDOT": 0}, "tle": {"line1": "1 30472U 99025AGK 25343.12621706  .00012409  00000+0  29424-2 0  9991", "line2": "2 30472  98.6515  84.1157 0038501  90.6200  29.6119 14.53674291979883"}}, "geometry": {"type": "Point", "coordinates": [-95.67040979795463, -1.0068767770522713]}}, {"type": "Feature", "properties": {"norad_id": 30474, "name": "FENGYUN 1C DEB", "group": "fengyun-1c-debris", "lat": -62.10592908743695, "lon": -135.037592973335, "alt_km": 783.956737335574, "timestamp": "2025-12-09T11:33:55.076510+00:00", "meta": {"OBJECT_NAME": "FENGYUN 1C DEB", "OBJECT_ID": "1999-025AGM", "EPOCH": "2025-12-09T04:03:44.417376", "MEAN_MOTION": 14.37685421, "ECCENTRICITY": 0.002293, "INCLINATION": 98.9288, "RA_OF_ASC_NODE": 61.9152, "ARG_OF_PERICENTER": 15.0817, "MEAN_ANOMALY": 51.4093, "EPHEMERIS_TYPE": 0, "CLASSIFICATION_TYPE": "U", "NORAD_CAT_ID": 30474, "ELEMENT_SET_NO": 999, "REV_AT_EPOCH": 97342, "BSTAR": 0.0025927, "MEAN_MOTION_DOT": 7.777e-05, "MEAN_MOTION_DDOT": 0}, "tle": {"line1": "1 30474U 99025AGM 25343.16926409  .00007777  00000+0  25927-2 0  9991", "line2": "2 30474  98.9288  61.9152 0022930  15.0817  51.4093 14.37685421973424"}}, "geometry": {"type": "Point", "coordinates": [-135.037592973335, -62.10592908743695]}}, {"type": "Feature", "properties": {"norad_id": 30475, "name": "FENGYUN 1C DEB", "group": "fengyun-1c-debris", "lat": -25.339060799252117, "lon": -159.14903495637463, "alt_km": 847.9604790619278, "timestamp": "2025-12-09T11:33:55.076520+00:00", "meta": {"OBJECT_NAME": "FENGYUN 1C DEB", "OBJECT_ID": "1999-025AGN", "EPOCH": "2025-12-09T02:22:27.164064", "MEAN_MOTION": 14.15661857, "ECCENTRICITY": 0.0042232, "INCLINATION": 98.7873, "RA_OF_ASC_NODE": 24.6739, "ARG_OF_PERICENTER": 301.3118, "MEAN_ANOMALY": 114.0935, "EPHEMERIS_TYPE": 0, "CLASSIFICATION_TYPE": "U", "NORAD_CAT_ID": 30475, "ELEMENT_SET_NO": 999, "REV_AT_EPOCH": 96900, "BSTAR": 0.00097353, "MEAN_MOTION_DOT": 1.88e-05, "MEAN_MOTION_DDOT": 0}, "tle": {"line1": "1 30475U 99025AGN 25343.09892551  .00001880  00000+0  97353-3 0  9996", "line2": "2 30475  98.7873  24.6739 0042232 301.3118 114.0935 14.15661857969005"}}, "geometry": {"type": "Point", "coordinates": [-159.14903495637463, -25.339060799252117]}}, {"type": "Feature", "properties": {"norad_id": 30476, "name": "FENGYUN 1C DEB", "group": "fengyun-1c-debris", "lat": -77.98788630272585, "lon": 151.51772657261517, "alt_km": 807.5543463298673, "timestamp": "2025-12-09T11:33:55.076530+00:00", "meta": {"OBJECT_NAME": "FENGYUN 1C DEB", "OBJECT_ID": "1999-025AGP", "EPOCH": "2025-12-09T02:08:30.029280", "MEAN_MOTION": 14.20875863, "ECCENTRICITY": 0.0044827, "INCLINATION": 99.1245, "RA_OF_ASC_NODE": 20.1658, "ARG_OF_PERICENTER": 310.175, "MEAN_ANOMALY": 104.989, "EPHEMERIS_TYPE": 0, "CLASSIFICATION_TYPE": "U", "NORAD_CAT_ID": 30476, "ELEMENT_SET_NO": 999, "REV_AT_EPOCH": 96793, "BSTAR": 0.001688, "MEAN_MOTION_DOT": 3.642e-05, "MEAN_MOTION_DDOT": 0}, "tle": {"line1": "1 30476U 99025AGP 25343.08923645  .00003642  00000+0  16880-2 0  9998", "line2": "2 30476  99.1245  20.1658 0044827 310.1750 104.9890 14.20875863967935"}}, "geometry": {"type": "Point", "coordinates": [151.51772657261517, -77.98788630272585]}}, {"type": "Feature", "properties": {"norad_id": 30477, "name": "FENGYUN 1C DEB", "group": "fengyun-1c-debris", "lat": -28.756710833369223, "lon": 72.04828893797648, "alt_km": 942.4480753338039, "timestamp": "2025-12-09T11:33:55.076541+00:00", "meta": {"OBJECT_NAME": "FENGYUN 1C DEB", "OBJECT_ID": "1999-025AGQ", "EPOCH": "2025-12-09T04:35:37.396320", "MEAN_MOTION": 13.23798841, "ECCENTRICITY": 0.043241, "INCLINATION": 99.4255, "RA_OF_ASC_NODE": 66.5549, "ARG_OF_PERICENTER": 285.5152, "MEAN_ANOMALY": 98.2615, "EPHEMERIS_TYPE": 0, "CLASSIFICATION_TYPE": "U", "NORAD_CAT_ID": 30477, "ELEMENT_SET_NO": 999, "REV_AT_EPOCH": 90672, "BSTAR": 0.0037555, "MEAN_MOTION_DOT": 2.589e-05, "MEAN_MOTION_DDOT": 0}, "tle": {"line1": "1 30477U 99025AGQ 25343.19140505  .00002589  00000+0  37555-2 0  9998", "line2": "2 30477  99.4255  66.5549 0432410 285.5152  98.2615 13.23798841906725"}}, "geometry": {"type": "Point", "coordinates": [72.04828893797648, -28.756710833369223]}}, {"type": "Feature", "properties": {"norad_id": 30480, "name": "FENGYUN 1C DEB", "group": "fengyun-1c-debris", "lat": -33.490079616428, "lon": 172.9647013409208, "alt_km": 722.1793890768731, "timestamp": "2025-12-09T11:33:55.076551+00:00", "meta": {"OBJECT_NAME": "FENGYUN 1C DEB", "OBJECT_ID": "1999-025AGS", "EPOCH": "2025-12-09T00:39:33.780384", "MEAN_MOTION": 14.3359132, "ECCENTRICITY": 0.0166198, "INCLINATION": 98.224, "RA_OF_ASC_NODE": 358.0235, "ARG_OF_PERICENTER": 156.7049, "MEAN_ANOMALY": 231.6268, "EPHEMERIS_TYPE": 0, "CLASSIFICATION_TYPE": "U", "NORAD_CAT_ID": 30480, "ELEMENT_SET_NO": 999, "REV_AT_EPOCH": 98615, "BSTAR": 0.00030226, "MEAN_MOTION_DOT": 9.33e-06, "MEAN_MOTION_DDOT": 0}, "tle": {"line1": "1 30480U 99025AGS 25343.02747431  .00000933  00000+0  30226-3 0  9995", "line2": "2 30480  98.2240 358.0235 0166198 156.7049 231.6268 14.33591320986159"}}, "geometry": {"type": "Point", "coordinates": [172.9647013409208, -33.490079616428]}}]}